CCSDS_OMM_VERS = 2.0
CREATION_DATE  = 
ORIGINATOR     = 

OBJECT_NAME    = UNKNOWN
OBJECT_ID      = 
CENTER_NAME    = EARTH
REF_FRAME      = TEME
TIME_SYSTEM    = UTC
MEAN_ELEMENT_THEORY = SGP/SGP4

EPOCH          = 2025-12-21T04:44:06.421920
MEAN_MOTION    = 14.80210532
ECCENTRICITY   = .00702083
INCLINATION    = 86.0729
RA_OF_ASC_NODE = 325.5942
ARG_OF_PERICENTER = 272.5788
MEAN_ANOMALY   = 86.7398

EPHEMERIS_TYPE = 0
CLASSIFICATION_TYPE = U
NORAD_CAT_ID   = 270257
ELEMENT_SET_NO = 999
REV_AT_EPOCH   = 8020
BSTAR          = .64994299E-2
MEAN_MOTION_DOT = .51851E-3
MEAN_MOTION_DDOT = 0

CCSDS_OMM_VERS = 2.0
CREATION_DATE  = 
ORIGINATOR     = 

OBJECT_NAME    = UNKNOWN
OBJECT_ID      = 
CENTER_NAME    = EARTH
REF_FRAME      = TEME
TIME_SYSTEM    = UTC
MEAN_ELEMENT_THEORY = SGP/SGP4

EPOCH          = 2025-12-11T07:48:57.517344
MEAN_MOTION    = 12.33743266
ECCENTRICITY   = .0367852
INCLINATION    = 82.3841
RA_OF_ASC_NODE = 316.1260
ARG_OF_PERICENTER = 4.3763
MEAN_ANOMALY   = 356.0382

EPHEMERIS_TYPE = 0
CLASSIFICATION_TYPE = U
NORAD_CAT_ID   = 270258
ELEMENT_SET_NO = 999
REV_AT_EPOCH   = 25992
BSTAR          = .73549946E-1
MEAN_MOTION_DOT = .11397E-3
MEAN_MOTION_DDOT = 0

CCSDS_OMM_VERS = 2.0
CREATION_DATE  = 
ORIGINATOR     = 

OBJECT_NAME    = UNKNOWN
OBJECT_ID      = 
CENTER_NAME    = EARTH
REF_FRAME      = TEME
TIME_SYSTEM    = UTC
MEAN_ELEMENT_THEORY = SGP/SGP4

EPOCH          = 2025-12-06T20:01:17.379552
MEAN_MOTION    = 12.83342006
ECCENTRICITY   = .03739859
INCLINATION    = 63.2103
RA_OF_ASC_NODE = 24.9543
ARG_OF_PERICENTER = 20.7494
MEAN_ANOMALY   = 340.8236

EPHEMERIS_TYPE = 0
CLASSIFICATION_TYPE = U
NORAD_CAT_ID   = 270261
ELEMENT_SET_NO = 999
REV_AT_EPOCH   = 26948
BSTAR          = .59485481E-3
MEAN_MOTION_DOT = .114E-5
MEAN_MOTION_DDOT = 0

CCSDS_OMM_VERS = 2.0
CREATION_DATE  = 
ORIGINATOR     = 

OBJECT_NAME    = UNKNOWN
OBJECT_ID      = 
CENTER_NAME    = EARTH
REF_FRAME      = TEME
TIME_SYSTEM    = UTC
MEAN_ELEMENT_THEORY = SGP/SGP4

EPOCH          = 2025-12-16T07:28:46.096032
MEAN_MOTION    = 12.95570327
ECCENTRICITY   = .00313232
INCLINATION    = 90.2412
RA_OF_ASC_NODE = 5.1682
ARG_OF_PERICENTER = 292.2625
MEAN_ANOMALY   = 67.5174

EPHEMERIS_TYPE = 0
CLASSIFICATION_TYPE = U
NORAD_CAT_ID   = 270262
ELEMENT_SET_NO = 999
REV_AT_EPOCH   = 27259
BSTAR          = .26487304E-3
MEAN_MOTION_DOT = .82E-6
MEAN_MOTION_DDOT = 0

CCSDS_OMM_VERS = 2.0
CREATION_DATE  = 
ORIGINATOR     = 

OBJECT_NAME    = UNKNOWN
OBJECT_ID      = 
CENTER_NAME    = EARTH
REF_FRAME      = TEME
TIME_SYSTEM    = UTC
MEAN_ELEMENT_THEORY = SGP/SGP4

EPOCH          = 2025-12-21T01:08:45.959424
MEAN_MOTION    = 14.34863650
ECCENTRICITY   = .00324616
INCLINATION    = 86.4346
RA_OF_ASC_NODE = 115.7913
ARG_OF_PERICENTER = 317.1497
MEAN_ANOMALY   = 42.7170

EPHEMERIS_TYPE = 0
CLASSIFICATION_TYPE = U
NORAD_CAT_ID   = 270263
ELEMENT_SET_NO = 999
REV_AT_EPOCH   = 30404
BSTAR          = .2532488E-3
MEAN_MOTION_DOT = .742E-5
MEAN_MOTION_DDOT = 0

CCSDS_OMM_VERS = 2.0
CREATION_DATE  = 
ORIGINATOR     = 

OBJECT_NAME    = UNKNOWN
OBJECT_ID      = 
CENTER_NAME    = EARTH
REF_FRAME      = TEME
TIME_SYSTEM    = UTC
MEAN_ELEMENT_THEORY = SGP/SGP4

EPOCH          = 2025-12-22T00:58:12.813312
MEAN_MOTION    = 13.15460048
ECCENTRICITY   = .00222593
INCLINATION    = 82.5465
RA_OF_ASC_NODE = 270.0851
ARG_OF_PERICENTER = 347.7659
MEAN_ANOMALY   = 12.2919

EPHEMERIS_TYPE = 0
CLASSIFICATION_TYPE = U
NORAD_CAT_ID   = 270264
ELEMENT_SET_NO = 999
REV_AT_EPOCH   = 27736
BSTAR          = .30456053E-2
MEAN_MOTION_DOT = .1159E-4
MEAN_MOTION_DDOT = 0

CCSDS_OMM_VERS = 2.0
CREATION_DATE  = 
ORIGINATOR     = 

OBJECT_NAME    = UNKNOWN
OBJECT_ID      = 
CENTER_NAME    = EARTH
REF_FRAME      = TEME
TIME_SYSTEM    = UTC
MEAN_ELEMENT_THEORY = SGP/SGP4

EPOCH          = 2025-12-19T22:13:56.853408
MEAN_MOTION    = 12.71711775
ECCENTRICITY   = .01247097
INCLINATION    = 82.4432
RA_OF_ASC_NODE = 228.2672
ARG_OF_PERICENTER = 221.0392
MEAN_ANOMALY   = 138.1271

EPHEMERIS_TYPE = 0
CLASSIFICATION_TYPE = U
NORAD_CAT_ID   = 270265
ELEMENT_SET_NO = 999
REV_AT_EPOCH   = 26650
BSTAR          = .52275949E-2
MEAN_MOTION_DOT = .1105E-4
MEAN_MOTION_DDOT = 0

CCSDS_OMM_VERS = 2.0
CREATION_DATE  = 
ORIGINATOR     = 

OBJECT_NAME    = UNKNOWN
OBJECT_ID      = 
CENTER_NAME    = EARTH
REF_FRAME      = TEME
TIME_SYSTEM    = UTC
MEAN_ELEMENT_THEORY = SGP/SGP4

EPOCH          = 2025-12-17T18:16:43.897152
MEAN_MOTION    = 12.96373345
ECCENTRICITY   = .00277365
INCLINATION    = 90.2394
RA_OF_ASC_NODE = 2.6597
ARG_OF_PERICENTER = 247.7386
MEAN_ANOMALY   = 112.0792

EPHEMERIS_TYPE = 0
CLASSIFICATION_TYPE = U
NORAD_CAT_ID   = 270267
ELEMENT_SET_NO = 999
REV_AT_EPOCH   = 27304
BSTAR          = -.98179586E-4
MEAN_MOTION_DOT = -.21E-6
MEAN_MOTION_DDOT = 0

CCSDS_OMM_VERS = 2.0
CREATION_DATE  = 
ORIGINATOR     = 

OBJECT_NAME    = UNKNOWN
OBJECT_ID      = 
CENTER_NAME    = EARTH
REF_FRAME      = TEME
TIME_SYSTEM    = UTC
MEAN_ELEMENT_THEORY = SGP/SGP4

EPOCH          = 2025-12-20T18:36:53.997408
MEAN_MOTION    = 12.98332441
ECCENTRICITY   = .0029622
INCLINATION    = 90.2394
RA_OF_ASC_NODE = 4.8255
ARG_OF_PERICENTER = 162.6147
MEAN_ANOMALY   = 197.5996

EPHEMERIS_TYPE = 0
CLASSIFICATION_TYPE = U
NORAD_CAT_ID   = 270268
ELEMENT_SET_NO = 999
REV_AT_EPOCH   = 27352
BSTAR          = .79746112E-3
MEAN_MOTION_DOT = .242E-5
MEAN_MOTION_DDOT = 0

CCSDS_OMM_VERS = 2.0
CREATION_DATE  = 
ORIGINATOR     = 

OBJECT_NAME    = UNKNOWN
OBJECT_ID      = 
CENTER_NAME    = EARTH
REF_FRAME      = TEME
TIME_SYSTEM    = UTC
MEAN_ELEMENT_THEORY = SGP/SGP4

EPOCH          = 2025-12-21T09:15:12.968928
MEAN_MOTION    = 13.30510274
ECCENTRICITY   = .00836307
INCLINATION    = 82.5837
RA_OF_ASC_NODE = 236.2890
ARG_OF_PERICENTER = 49.3551
MEAN_ANOMALY   = 311.4812

EPHEMERIS_TYPE = 0
CLASSIFICATION_TYPE = U
NORAD_CAT_ID   = 270269
ELEMENT_SET_NO = 999
REV_AT_EPOCH   = 27999
BSTAR          = .47057151E-3
MEAN_MOTION_DOT = .239E-5
MEAN_MOTION_DDOT = 0

CCSDS_OMM_VERS = 2.0
CREATION_DATE  = 
ORIGINATOR     = 

OBJECT_NAME    = UNKNOWN
OBJECT_ID      = 
CENTER_NAME    = EARTH
REF_FRAME      = TEME
TIME_SYSTEM    = UTC
MEAN_ELEMENT_THEORY = SGP/SGP4

EPOCH          = 2025-12-18T08:38:26.766528
MEAN_MOTION    = 12.58450704
ECCENTRICITY   = .01557403
INCLINATION    = 102.1536
RA_OF_ASC_NODE = 221.8160
ARG_OF_PERICENTER = 23.7317
MEAN_ANOMALY   = 337.0842

EPHEMERIS_TYPE = 0
CLASSIFICATION_TYPE = U
NORAD_CAT_ID   = 270271
ELEMENT_SET_NO = 999
REV_AT_EPOCH   = 26475
BSTAR          = .27261755E-2
MEAN_MOTION_DOT = .438E-5
MEAN_MOTION_DDOT = 0

CCSDS_OMM_VERS = 2.0
CREATION_DATE  = 
ORIGINATOR     = 

OBJECT_NAME    = UNKNOWN
OBJECT_ID      = 
CENTER_NAME    = EARTH
REF_FRAME      = TEME
TIME_SYSTEM    = UTC
MEAN_ELEMENT_THEORY = SGP/SGP4

EPOCH          = 2025-12-17T19:27:51.278688
MEAN_MOTION    = 12.98294872
ECCENTRICITY   = .00321951
INCLINATION    = 90.2463
RA_OF_ASC_NODE = 8.2335
ARG_OF_PERICENTER = 147.9040
MEAN_ANOMALY   = 212.4050

EPHEMERIS_TYPE = 0
CLASSIFICATION_TYPE = U
NORAD_CAT_ID   = 270274
ELEMENT_SET_NO = 999
REV_AT_EPOCH   = 27271
BSTAR          = .28242027E-2
MEAN_MOTION_DOT = .839E-5
MEAN_MOTION_DDOT = 0

CCSDS_OMM_VERS = 2.0
CREATION_DATE  = 
ORIGINATOR     = 

OBJECT_NAME    = UNKNOWN
OBJECT_ID      = 
CENTER_NAME    = EARTH
REF_FRAME      = TEME
TIME_SYSTEM    = UTC
MEAN_ELEMENT_THEORY = SGP/SGP4

EPOCH          = 2025-12-22T07:56:33.482976
MEAN_MOTION    = 13.91188815
ECCENTRICITY   = .03085182
INCLINATION    = 86.4341
RA_OF_ASC_NODE = 21.2004
ARG_OF_PERICENTER = 169.9627
MEAN_ANOMALY   = 190.7906

EPHEMERIS_TYPE = 0
CLASSIFICATION_TYPE = U
NORAD_CAT_ID   = 270275
ELEMENT_SET_NO = 999
REV_AT_EPOCH   = 1881
BSTAR          = .37320821E-2
MEAN_MOTION_DOT = .6937E-4
MEAN_MOTION_DDOT = 0

CCSDS_OMM_VERS = 2.0
CREATION_DATE  = 
ORIGINATOR     = 

OBJECT_NAME    = UNKNOWN
OBJECT_ID      = 
CENTER_NAME    = EARTH
REF_FRAME      = TEME
TIME_SYSTEM    = UTC
MEAN_ELEMENT_THEORY = SGP/SGP4

EPOCH          = 2025-12-21T04:40:29.597664
MEAN_MOTION    = 11.12858344
ECCENTRICITY   = .07892736
INCLINATION    = 102.3992
RA_OF_ASC_NODE = 161.3136
ARG_OF_PERICENTER = 99.6670
MEAN_ANOMALY   = 269.4302

EPHEMERIS_TYPE = 0
CLASSIFICATION_TYPE = U
NORAD_CAT_ID   = 270276
ELEMENT_SET_NO = 999
REV_AT_EPOCH   = 23425
BSTAR          = -.25049607E-1
MEAN_MOTION_DOT = -.142E-4
MEAN_MOTION_DDOT = 0

CCSDS_OMM_VERS = 2.0
CREATION_DATE  = 
ORIGINATOR     = 

OBJECT_NAME    = UNKNOWN
OBJECT_ID      = 
CENTER_NAME    = EARTH
REF_FRAME      = TEME
TIME_SYSTEM    = UTC
MEAN_ELEMENT_THEORY = SGP/SGP4

EPOCH          = 2025-12-14T20:13:31.443456
MEAN_MOTION    = 14.43007601
ECCENTRICITY   = .02611635
INCLINATION    = 34.0994
RA_OF_ASC_NODE = 178.3823
ARG_OF_PERICENTER = 357.5804
MEAN_ANOMALY   = 2.3601

EPHEMERIS_TYPE = 0
CLASSIFICATION_TYPE = U
NORAD_CAT_ID   = 270278
ELEMENT_SET_NO = 999
REV_AT_EPOCH   = 29584
BSTAR          = .16497701E-2
MEAN_MOTION_DOT = .8498E-4
MEAN_MOTION_DDOT = 0

CCSDS_OMM_VERS = 2.0
CREATION_DATE  = 
ORIGINATOR     = 

OBJECT_NAME    = UNKNOWN
OBJECT_ID      = 
CENTER_NAME    = EARTH
REF_FRAME      = TEME
TIME_SYSTEM    = UTC
MEAN_ELEMENT_THEORY = SGP/SGP4

EPOCH          = 2025-12-01T07:08:49.304832
MEAN_MOTION    = 12.93760930
ECCENTRICITY   = .00257499
INCLINATION    = 90.2273
RA_OF_ASC_NODE = 359.7372
ARG_OF_PERICENTER = 331.5665
MEAN_ANOMALY   = 28.4048

EPHEMERIS_TYPE = 0
CLASSIFICATION_TYPE = U
NORAD_CAT_ID   = 270279
ELEMENT_SET_NO = 999
REV_AT_EPOCH   = 26826
BSTAR          = .12946107E-2
MEAN_MOTION_DOT = .364E-5
MEAN_MOTION_DDOT = 0

